{
  "type": "FeatureCollection",
  "features": [
    {
      "type": "Feature",
      "properties": {
        "norad_id": 54741,
        "name": "GALAXY 35 (G-35)",
        "group": "intelsat",
        "lat": -0.03234311388170651,
        "lon": -173.4268475616723,
        "alt_km": 35783.399139474204,
        "timestamp": "2025-12-02T13:52:16.943596+00:00",
        "meta_object_name": "GALAXY 35 (G-35)",
        "meta_object_id": "2022-170A",
        "meta_epoch": "2025-12-02T04:46:54.266880",
        "meta_mean_motion": 1.0026932,
        "meta_eccentricity": 0.00028193,
        "meta_inclination": 0.0167,
        "meta_ra_of_asc_node": 315.1995,
        "meta_arg_of_pericenter": 304.9805,
        "meta_mean_anomaly": 149.738,
        "meta_ephemeris_type": 0,
        "meta_classification_type": "U",
        "meta_norad_cat_id": 54741,
        "meta_element_set_no": 999,
        "meta_rev_at_epoch": 1091,
        "meta_bstar": 0,
        "meta_mean_motion_dot": 0,
        "meta_mean_motion_ddot": 0,
        "tle_line1": "1 54741U 22170A   25336.19923920  .00000000  00000+0  00000+0 0  9995",
        "tle_line2": "2 54741   0.0167 315.1995 0002819 304.9805 149.7380  1.00269320 10915"
      },
      "geometry": {
        "type": "Point",
        "coordinates": [
          -173.4268475616723,
          -0.03234311388170651
        ]
      }
    },
    {
      "type": "Feature",
      "properties": {
        "norad_id": 54742,
        "name": "GALAXY 36 (G-36)",
        "group": "intelsat",
        "lat": -0.03415980495811917,
        "lon": -169.27598429010848,
        "alt_km": 35785.059478361705,
        "timestamp": "2025-12-02T13:52:16.943607+00:00",
        "meta_object_name": "GALAXY 36 (G-36)",
        "meta_object_id": "2022-170B",
        "meta_epoch": "2025-12-02T04:48:01.659744",
        "meta_mean_motion": 1.00270609,
        "meta_eccentricity": 5.537e-05,
        "meta_inclination": 0.0197,
        "meta_ra_of_asc_node": 260.0894,
        "meta_arg_of_pericenter": 344.5242,
        "meta_mean_anomaly": 169.7091,
        "meta_ephemeris_type": 0,
        "meta_classification_type": "U",
        "meta_norad_cat_id": 54742,
        "meta_element_set_no": 999,
        "meta_rev_at_epoch": 1079,
        "meta_bstar": 0,
        "meta_mean_motion_dot": -1.64e-06,
        "meta_mean_motion_ddot": 0,
        "tle_line1": "1 54742U 22170B   25336.20001921 -.00000164  00000+0  00000+0 0  9998",
        "tle_line2": "2 54742   0.0197 260.0894 0000553 344.5242 169.7091  1.00270609 10792"
      },
      "geometry": {
        "type": "Point",
        "coordinates": [
          -169.27598429010848,
          -0.03415980495811917
        ]
      }
    },
    {
      "type": "Feature",
      "properties": {
        "norad_id": 57493,
        "name": "GALAXY 37 (G-37)",
        "group": "intelsat",
        "lat": -0.02238666981011541,
        "lon": 152.70249059586936,
        "alt_km": 35788.242084518606,
        "timestamp": "2025-12-02T13:52:16.943619+00:00",
        "meta_object_name": "GALAXY 37 (G-37)",
        "meta_object_id": "2023-112A",
        "meta_epoch": "2025-12-01T21:46:02.612352",
        "meta_mean_motion": 1.00271443,
        "meta_eccentricity": 0.00023699,
        "meta_inclination": 0.0198,
        "meta_ra_of_asc_node": 293.7772,
        "meta_arg_of_pericenter": 321.1427,
        "meta_mean_anomaly": 15.6168,
        "meta_ephemeris_type": 0,
        "meta_classification_type": "U",
        "meta_norad_cat_id": 57493,
        "meta_element_set_no": 999,
        "meta_rev_at_epoch": 856,
        "meta_bstar": 0,
        "meta_mean_motion_dot": 6.9e-07,
        "meta_mean_motion_ddot": 0,
        "tle_line1": "1 57493U 23112A   25335.90697468  .00000069  00000+0  00000+0 0  9997",
        "tle_line2": "2 57493   0.0198 293.7772 0002369 321.1427  15.6168  1.00271443  8563"
      },
      "geometry": {
        "type": "Point",
        "coordinates": [
          152.70249059586936,
          -0.02238666981011541
        ]
      }
    }
  ]
}